KSAN 070351Z 10008KT 6SM RA FEW010 BKN034CB OVC050 14/12 A2991 RMK AO2